OBJECT_NAME,OBJECT_ID,EPOCH,MEAN_MOTION,ECCENTRICITY,INCLINATION,RA_OF_ASC_NODE,ARG_OF_PERICENTER,MEAN_ANOMALY,EPHEMERIS_TYPE,CLASSIFICATION_TYPE,NORAD_CAT_ID,ELEMENT_SET_NO,REV_AT_EPOCH,BSTAR,MEAN_MOTION_DOT,MEAN_MOTION_DDOT
STARLINK-5413,2022-175BC,2026-07-22T02:58:01.933536,15.08836544,.0001566,53.1605,130.4876,78.6470,281.4697,0,U,54808,999,20063,-.5892005E-5,-.382E-5,0
STARLINK-5414,2022-175BD,2026-07-22T02:41:51.868032,15.34394363,.00016384,53.1620,139.7001,84.7937,275.3252,0,U,54809,999,20050,.37278857E-4,.883E-5,0
STARLINK-5408,2022-175BE,2026-07-22T06:00:02.000160,15.25513385,.00018333,53.1616,138.8203,60.5314,54.6011,0,U,54810,999,573,.51573817E-2,.134501E-2,0
STARLINK-5424,2022-175BF,2026-07-22T06:00:02.000160,15.26121336,.00008915,53.1590,139.0403,68.5580,289.0586,0,U,54811,999,559,.42507789E-1,.1211455E-1,0
STARLINK-5382,2022-177A,2026-07-21T01:30:39.349152,15.27581171,.00014434,43.0035,102.6287,265.5984,94.4703,0,U,54820,999,19732,.32139246E-4,.622E-5,0
STARLINK-5385,2022-177B,2026-07-21T01:47:18.695616,15.27578734,.00010019,43.0019,102.7102,255.0419,105.0321,0,U,54821,999,19732,.22815145E-4,.366E-5,0
STARLINK-5101,2022-177C,2026-07-21T22:31:42.209472,15.27577872,.0000815,43.0021,98.0103,249.7293,110.3471,0,U,54822,999,19745,.10148149E-4,.17E-6,0
STARLINK-5106,2022-177D,2026-07-21T17:17:46.714848,15.27577523,.0001203,43.0039,98.9597,189.4100,170.6729,0,U,54823,999,19742,.2040725E-4,.299E-5,0
STARLINK-4643,2022-177E,2026-07-21T03:15:54.358848,15.27580988,.00012816,43.0018,102.3100,277.6341,82.4365,0,U,54824,999,19733,.17531472E-3,.4565E-4,0
STARLINK-5107,2022-177G,2026-07-21T17:43:42.002976,15.27576452,.00009136,43.0025,99.0782,245.2482,114.8275,0,U,54826,999,19742,.52262845E-4,.1176E-4,0
STARLINK-5383,2022-177H,2026-07-21T17:54:46.759392,15.27576697,.00009594,43.0022,99.1421,257.6609,102.4135,0,U,54827,999,19742,.11671119E-4,.59E-6,0
STARLINK-5381,2022-177J,2026-07-21T22:42:48.479616,15.27577580,.00009036,43.0025,98.0623,251.9384,108.1369,0,U,54828,999,19745,.51019295E-4,.1142E-4,0
STARLINK-5394,2022-177L,2026-07-21T02:33:33.255360,15.27584122,.00007996,43.0045,102.9421,269.1613,90.9147,0,U,54830,999,19732,.26927292E-4,.479E-5,0
STARLINK-5395,2022-177M,2026-07-21T01:52:51.765888,15.27581601,.00008727,43.0014,102.7303,262.7811,97.2941,0,U,54831,999,19732,-.18268535E-4,-.765E-5,0
STARLINK-5386,2022-177Q,2026-07-21T18:20:40.540704,15.27580496,.00013627,43.0044,99.2784,271.7614,88.3082,0,U,54834,999,19743,.26092984E-4,.456E-5,0
STARLINK-5389,2022-177R,2026-07-22T00:22:31.719360,15.27568573,.00010253,43.0024,97.7248,251.9407,108.1333,0,U,54835,999,19746,.67166313E-4,.1586E-4,0
STARLINK-5372,2022-177U,2026-07-21T17:59:11.305824,15.27578989,.00010219,43.0041,95.7620,267.7761,92.2974,0,U,54838,999,19746,.19775207E-4,.282E-5,0
STARLINK-5368,2022-177W,2026-07-21T17:49:58.236096,15.27533992,.00041233,43.0038,95.7067,165.5864,194.5106,0,U,54840,999,19746,.14160571E-3,.3631E-4,0
STARLINK-4659,2022-177X,2026-07-21T22:47:12.323616,15.27576287,.00013734,43.0054,94.6832,263.0760,96.9935,0,U,54841,999,19749,.4610018E-5,-.135E-5,0
STARLINK-5387,2022-177Y,2026-07-21T03:31:25.395744,15.27569884,.0000991,43.0024,98.9712,263.2095,96.8644,0,U,54842,999,19737,-.67455468E-4,-.2117E-4,0
STARLINK-5304,2022-177Z,2026-07-21T22:50:54.288672,15.27579719,.00012804,43.0045,94.6999,276.9544,83.1162,0,U,54843,999,19749,.48451031E-4,.1071E-4,0
STARLINK-5388,2022-177AA,2026-07-21T02:55:33.315168,15.27580729,.00013631,43.0047,102.1778,261.5155,98.5543,0,U,54844,999,19733,.42186873E-4,.899E-5,0
STARLINK-5082,2022-177AB,2026-07-21T09:53:36.436128,15.27576068,.0000791,43.0023,97.5243,259.5773,100.4989,0,U,54845,999,19741,.25654E-5,-.191E-5,0
STARLINK-5360,2022-177AC,2026-07-21T01:53:34.745568,15.27579995,.00010854,43.0025,99.3219,243.5606,116.5135,0,U,54846,999,19736,-.12773113E-3,-.3775E-4,0
STARLINK-5061,2022-177AD,2026-07-21T14:56:26.985120,15.27577896,.00016673,43.0050,73.9068,269.0229,91.0432,0,U,54847,999,19770,.2622061E-5,-.19E-5,0
STARLINK-5432,2022-177AE,2026-07-21T02:30:35.712000,15.27568419,.00013808,43.0018,88.2200,270.3240,89.7454,0,U,54848,999,19749,.40496071E-4,.852E-5,0
STARLINK-5087,2022-177AG,2026-07-20T10:13:50.987712,15.27585239,.0001521,43.0052,91.7301,272.5118,87.5560,0,U,54850,999,19739,.9969132E-5,.12E-6,0
STARLINK-5084,2022-177AH,2026-07-21T01:49:53.026752,15.27577657,.00015149,43.0058,88.0101,277.5462,82.5217,0,U,54851,999,19749,.13059057E-4,.97E-6,0
STARLINK-5418,2022-177AJ,2026-07-21T23:38:49.356672,15.27574855,.00012452,43.0048,82.7903,265.1990,94.8720,0,U,54852,999,19763,.2918127E-4,.541E-5,0
STARLINK-5427,2022-177AK,2026-07-21T17:40:41.490048,15.27586159,.00018532,43.0071,84.3673,270.2894,89.7746,0,U,54853,999,19759,.63851739E-4,.1495E-4,0
STARLINK-5416,2022-177AM,2026-07-21T22:15:46.224576,15.27577322,.00014857,43.0059,83.2180,274.3920,85.6762,0,U,54855,999,19762,.11755414E-4,.61E-6,0
STARLINK-5086,2022-177AN,2026-07-21T23:02:02.084640,15.27575437,.0000996,43.0014,83.4479,254.7300,105.3442,0,U,54856,999,19762,.39551127E-4,.826E-5,0
STARLINK-5078,2022-177AP,2026-07-21T00:37:55.892640,15.27578703,.0001468,43.0038,88.4905,265.1591,94.9093,0,U,54857,999,19748,.21471902E-4,.329E-5,0
STARLINK-5407,2022-177AQ,2026-07-21T22:25:01.506144,15.27569355,.00014584,43.0047,83.2634,268.9041,91.1644,0,U,54858,999,19762,.72491403E-4,.1732E-4,0
STARLINK-5409,2022-177AR,2026-07-21T00:58:17.108256,15.27576500,.00009412,43.0029,88.5932,241.3239,118.7518,0,U,54859,999,19748,.6860208E-5,-.73E-6,0
STARLINK-5406,2022-177AS,2026-07-21T02:43:32.932704,15.27582469,.00010415,43.0030,88.2723,248.9509,111.1231,0,U,54860,999,19749,.40210606E-4,.845E-5,0
STARLINK-5400,2022-177AT,2026-07-21T09:36:58.008096,15.27574900,.00017219,43.0070,86.1444,269.7870,90.2784,0,U,54861,999,19754,.297706E-6,-.254E-5,0
STARLINK-5403,2022-177AU,2026-07-22T00:13:59.008800,15.27580973,.00011809,43.0033,82.9881,241.4374,118.6358,0,U,54862,999,19763,.46222525E-4,.101E-4,0
STARLINK-5405,2022-177AV,2026-07-21T00:49:02.131680,15.27578024,.00011106,43.0021,88.5448,251.3635,108.7096,0,U,54863,999,19748,.6581075E-5,-.81E-6,0
STARLINK-5359,2022-177AW,2026-07-21T01:20:30.376032,15.27582231,.00007363,43.0028,88.6998,259.1459,100.9310,0,U,54864,999,19748,.47751131E-4,.1052E-4,0
STARLINK-5411,2022-177AX,2026-07-21T22:41:40.235712,15.27577635,.00014312,43.0025,83.3449,254.4231,105.6463,0,U,54865,999,19762,.16510208E-4,.192E-5,0
STARLINK-5398,2022-177AY,2026-07-21T17:18:29.450016,15.27579450,.00015052,43.0052,84.2429,281.2651,78.8032,0,U,54866,999,19759,.22655128E-4,.361E-5,0
STARLINK-5396,2022-177AZ,2026-07-21T16:56:30.163488,15.27577814,.00011008,43.0015,84.9778,251.8834,108.1898,0,U,54867,999,19758,-.9659766E-5,-.528E-5,0
STARLINK-5379,2022-177BA,2026-07-21T23:46:13.298880,15.27576653,.00012952,43.0052,82.8195,277.5508,82.5197,0,U,54868,999,19763,.39495912E-4,.825E-5,0
STARLINK-5402,2022-177BB,2026-07-21T21:59:19.368096,15.27575709,.00012942,43.0046,83.9828,264.2707,95.7997,0,U,54869,999,19761,.10160934E-4,.17E-6,0
STARLINK-5401,2022-177BC,2026-07-21T22:06:30.719232,15.27577329,.00012902,43.0055,83.1636,247.0218,113.0497,0,U,54870,999,19762,.17011182E-4,.206E-5,0
STARLINK-5397,2022-177BD,2026-07-21T21:53:46.334976,15.27575059,.0001136,43.0053,83.9493,258.8050,101.2674,0,U,54871,999,19761,.11317389E-4,.49E-6,0
STARLINK-5091,2022-177BF,2026-07-21T02:34:17.354784,15.27575950,.00014481,43.0019,88.2167,262.7928,97.2759,0,U,54873,999,19749,.9222185E-5,-.8E-7,0
STARLINK-5277,2023-010A,2026-07-22T00:13:12.939456,14.98332732,.0003025,70.0001,65.8714,272.7822,87.2991,0,U,55269,999,19318,-.12630595E-3,-.16E-4,0
STARLINK-5306,2023-010C,2026-07-22T00:19:13.776096,14.98331922,.00028725,69.9999,65.8875,267.5076,92.5754,0,U,55271,999,19290,.20356998E-4,.15E-5,0
STARLINK-5310,2023-010D,2026-07-21T23:55:11.069760,14.98332677,.00028367,69.9998,65.8318,269.0214,91.0620,0,U,55272,999,19290,.13563036E-4,.69E-6,0
STARLINK-5291,2023-010E,2026-07-22T00:55:13.973088,14.98333427,.00036745,69.9995,65.5759,260.0932,99.9813,0,U,55273,999,19291,-.18960062E-4,-.319E-5,0
STARLINK-5236,2023-010F,2026-07-22T00:00:52.537248,14.98334258,.00023784,69.9998,45.9734,266.4266,93.6621,0,U,55274,999,19339,.55356015E-4,.568E-5,0
STARLINK-5260,2023-010G,2026-07-21T23:49:06.027168,14.98340494,.00024074,70.0011,45.9450,265.9384,94.1499,0,U,55275,999,19339,.32855203E-3,.383E-4,0
STARLINK-5261,2023-010H,2026-07-21T23:48:51.481728,14.98331392,.00027989,69.9996,45.9430,267.0377,93.0462,0,U,55276,999,19338,.52066542E-4,.528E-5,0
STARLINK-5299,2023-010J,2026-07-22T00:01:11.616096,14.98335245,.00027838,69.9998,65.8434,268.3759,91.7082,0,U,55277,999,19290,.51329363E-4,.52E-5,0
STARLINK-5289,2023-010K,2026-07-22T01:13:17.057568,14.98333969,.00026734,69.9997,65.6150,271.1110,88.9743,0,U,55278,999,19290,-.54622441E-4,-.745E-5,0
STARLINK-5331,2023-010M,2026-07-22T00:31:14.782368,14.98333846,.00028295,69.9996,65.9053,268.7764,91.3071,0,U,55280,999,19289,.15537529E-4,.92E-6,0
STARLINK-5298,2023-010N,2026-07-22T01:25:18.136416,14.98335498,.00026743,69.9998,65.6446,270.9211,89.1642,0,U,55281,999,19290,.4494461E-4,.443E-5,0
STARLINK-5330,2023-010P,2026-07-22T00:49:30.076896,14.98335233,.00027197,69.9995,65.5541,266.8312,93.2535,0,U,55282,999,19290,.68364898E-4,.723E-5,0
STARLINK-5317,2023-010Q,2026-07-22T01:19:19.090848,14.98329705,.0002996,69.9997,65.6294,271.5167,88.5649,0,U,55283,999,19290,.59014065E-4,.611E-5,0
STARLINK-5337,2023-010R,2026-07-22T00:49:14.331360,14.98342529,.00030553,69.9994,65.5526,267.5766,92.5043,0,U,55284,999,19289,-.27988037E-3,-.3432E-4,0
STARLINK-5332,2023-010S,2026-07-21T11:23:41.647776,14.98331684,.00030823,69.9999,27.0559,267.0691,93.0115,0,U,55285,999,19468,.12330253E-4,.54E-6,0
STARLINK-5338,2023-010T,2026-07-21T12:23:53.638656,14.98332577,.00031112,69.9995,47.0916,266.3084,93.7720,0,U,55286,999,19331,.3582264E-4,.334E-5,0
